#dV2023  2  1 10  0  0.00000000    1682       CTS   FIT  GFZ
## 2247 295200.00000000    30.00000000 59976 0.4166666666667
+    1   L65  0  0  0  0  0  0  0  0  0  0  0  0  0  0  0  0
+          0  0  0  0  0  0  0  0  0  0  0  0  0  0  0  0  0
+          0  0  0  0  0  0  0  0  0  0  0  0  0  0  0  0  0
+          0  0  0  0  0  0  0  0  0  0  0  0  0  0  0  0  0
+          0  0  0  0  0  0  0  0  0  0  0  0  0  0  0  0  0
++         0  0  0  0  0  0  0  0  0  0  0  0  0  0  0  0  0
++         0  0  0  0  0  0  0  0  0  0  0  0  0  0  0  0  0
++         0  0  0  0  0  0  0  0  0  0  0  0  0  0  0  0  0
++         0  0  0  0  0  0  0  0  0  0  0  0  0  0  0  0  0
++         0  0  0  0  0  0  0  0  0  0  0  0  0  0  0  0  0
%c L  cc GPS ccc cccc cccc cccc cccc ccccc ccccc ccccc ccccc
%c cc cc ccc ccc cccc cccc cccc cccc ccccc ccccc ccccc ccccc
%f  0.0000000  0.000000000  0.00000000000  0.000000000000000
%f  0.0000000  0.000000000  0.00000000000  0.000000000000000
%i    0    0    0    0      0      0      0      0         0
%i    0    0    0    0      0      0      0      0         0
/* CCCCCCCCCCCCCCCCCCCCCCCCCCCCCCCCCCCCCCCCCCCCCCCCCCCCCCCCCCCCCCCCCCCCCCCCCCCCC
/* C                             GFZ RSO-ORBIT                                 C
/* C DOI: https://doi.org/10.5880/GFZ_ORBIT/RSO/L65_G_v02                      C
/* C                                                                           C
/* C DORIS        RMS: not applicable                                          C
/* C GNSS-E Code  RMS: not applicable                                          C
/* C GNSS-E Phase RMS: not applicable                                          C
/* C GNSS-G Code  RMS:  49.032 [cm]   Obs.acc.:     13861 Obs.eli.:       962  C
/* C GNSS-G Phase RMS:   4.118 [mm]   Obs.acc.:     13861 Obs.eli.:       962  C
/* C SLR          RMS:   2.754 [cm]   Obs.acc.:        44 Obs.eli.:         0  C
/* C                                                                           C
/* CCCCCCCCCCCCCCCCCCCCCCCCCCCCCCCCCCCCCCCCCCCCCCCCCCCCCCCCCCCCCCCCCCCCCCCCCCCCC
*  2023  2  1 20 37 30.00000000
PL65  -1090.995237   4055.383581   5422.727516   6776.990780
VL65 -14818.791448  58422.783452 -46674.167786 999999.999999
*  2023  2  1 20 38  0.00000000
PL65  -1134.461180   4228.477487   5279.716996   6777.460112
VL65 -14156.888579  56961.998576 -48657.419956 999999.999999
*  2023  2  1 20 38 30.00000000
PL65  -1175.927386   4397.089425   5130.836656   6777.928997
VL65 -13485.803372  55435.068811 -50587.013943 999999.999999
*  2023  2  1 20 39  0.00000000
PL65  -1215.367840   4561.023379   4976.250750   6778.398246
VL65 -12806.557816  53843.621181 -52460.772674 999999.999999
*  2023  2  1 20 39 30.00000000
PL65  -1252.759597   4720.088337   4816.129974   6778.867806
VL65 -12120.176319  52189.361889 -54276.579772 999999.999999
*  2023  2  1 20 40  0.00000000
PL65  -1288.082788   4874.098520   4650.651278   6779.336716
VL65 -11427.684129  50474.074125 -56032.382050 999999.999999
*  2023  2  1 20 40 30.00000000
PL65  -1321.320615   5022.873610   4479.997676   6779.805794
VL65 -10730.105159  48699.616059 -57726.191980 999999.999999
*  2023  2  1 20 41  0.00000000
PL65  -1352.459353   5166.238974   4304.358041   6780.274841
VL65 -10028.460334  46867.918055 -59356.089882 999999.999999
*  2023  2  1 20 41 30.00000000
PL65  -1381.488329   5304.025875   4123.926902   6780.743895
VL65  -9323.767378  44980.979983 -60920.224810 999999.999999
*  2023  2  1 20 42  0.00000000
PL65  -1408.399924   5436.071680   3938.904239   6781.213026
VL65  -8617.041010  43040.870854 -62416.815456 999999.999999
*  2023  2  1 20 42 30.00000000
PL65  -1433.189553   5562.220066   3749.495265   6781.682086
VL65  -7909.292060  41049.729092 -63844.153232 999999.999999
*  2023  2  1 20 43  0.00000000
PL65  -1455.855659   5682.321227   3555.910206   6782.151276
VL65  -7201.526185  39009.761190 -65200.607206 999999.999999
*  2023  2  1 20 43 30.00000000
PL65  -1476.399692   5796.232074   3358.364056   6782.620188
VL65  -6494.741681  36923.236616 -66484.629719 999999.999999
*  2023  2  1 20 44  0.00000000
PL65  -1494.826079   5903.816414   3157.076326   6783.089462
VL65  -5789.925904  34792.481150 -67694.756478 999999.999999
*  2023  2  1 20 44 30.00000000
PL65  -1511.142191   6004.945111   2952.270799   6783.558392
VL65  -5088.053199  32619.877294 -68829.603856 999999.999999
*  2023  2  1 20 45  0.00000000
PL65  -1525.358302   6099.496267   2744.175284   6784.027549
VL65  -4390.084262  30407.865307 -69887.873173 999999.999999
*  2023  2  1 20 45 30.00000000
PL65  -1537.487547   6187.355385   2533.021350   6784.496172
VL65  -3696.964978  28158.937156 -70868.355274 999999.999999
*  2023  2  1 20 46  0.00000000
PL65  -1547.545872   6268.415511   2319.044062   6784.965714
VL65  -3009.625292  25875.631259 -71769.930297 999999.999999
*  2023  2  1 20 46 30.00000000
PL65  -1555.551992   6342.577377   2102.481709   6785.434621
VL65  -2328.978416  23560.530782 -72591.568200 999999.999999
*  2023  2  1 20 47  0.00000000
PL65  -1561.527331   6409.749525   1883.575531   6785.903831
VL65  -1655.919337  21216.260819 -73332.331173 999999.999999
*  2023  2  1 20 47 30.00000000
PL65  -1565.495971   6469.848434   1662.569444   6786.372545
VL65   -991.323002  18845.484297 -73991.374500 999999.999999
*  2023  2  1 20 48  0.00000000
PL65  -1567.484586   6522.798622   1439.709758   6786.841619
VL65   -336.043284  16450.899728 -74567.946823 999999.999999
*  2023  2  1 20 48 30.00000000
PL65  -1567.522380   6568.532755   1215.244894   6787.310855
VL65    309.087854  14035.238539 -75061.392193 999999.999999
*  2023  2  1 20 49  0.00000000
PL65  -1565.641018   6606.991735    989.425094   6787.779662
VL65    943.261364  11601.260603 -75471.151359 999999.999999
*  2023  2  1 20 49 30.00000000
PL65  -1561.874556   6638.124785    762.502138   6788.248602
VL65   1565.692040   9151.750466 -75796.761671 999999.999999
*  2023  2  1 20 50  0.00000000
PL65  -1556.259370   6661.889512    534.729042   6788.717765
VL65   2175.619251   6689.514773 -76037.857320 999999.999999
*  2023  2  1 20 50 30.00000000
PL65  -1548.834080   6678.251974    306.359779   6789.186733
VL65   2772.307926   4217.379758 -76194.170643 999999.999999
*  2023  2  1 20 51  0.00000000
PL65  -1539.639470   6687.186733     77.648972   6789.655797
VL65   3355.050162   1738.187338 -76265.533681 999999.999999
*  2023  2  1 20 51 30.00000000
PL65  -1528.718406   6688.676894   -151.148401   6790.124798
VL65   3923.166451   -745.209280 -76251.878289 999999.999999
*  2023  2  1 20 52  0.00000000
PL65  -1516.115748   6682.714135   -379.777307   6790.593676
VL65   4476.006432  -3229.948291 -76153.236134 999999.999999
*  2023  2  1 20 52 30.00000000
PL65  -1501.878264   6669.298729   -607.982962   6791.062822
VL65   5012.950732  -5713.162565 -75969.741067 999999.999999
*  2023  2  1 20 53  0.00000000
PL65  -1486.054527   6648.439548   -835.511135   6791.531781
VL65   5533.412708  -8191.988429 -75701.630569 999999.999999
*  2023  2  1 20 53 30.00000000
PL65  -1468.694826   6620.154039  -1062.108462   6792.000810
VL65   6036.836990 -10663.573530 -75349.240380 999999.999999
*  2023  2  1 20 54  0.00000000
PL65  -1449.851069   6584.468190  -1287.522724   6792.469723
VL65   6522.698377 -13125.075336 -74912.999870 999999.999999
*  2023  2  1 20 54 30.00000000
PL65  -1429.576693   6541.416504  -1511.503133   6792.938306
VL65   6990.504074 -15573.660430 -74393.434582 999999.999999
*  2023  2  1 20 55  0.00000000
PL65  -1407.926561   6491.041963  -1733.800627   6793.407595
VL65   7439.795163 -18006.510803 -73791.168219 999999.999999
*  2023  2  1 20 55 30.00000000
PL65  -1384.956863   6433.395971  -1954.168158   6793.876603
VL65   7870.146481 -20420.830463 -73106.920114 999999.999999
*  2023  2  1 20 56  0.00000000
PL65  -1360.725014   6368.538283  -2172.360974   6794.345341
VL65   8281.166834 -22813.848515 -72341.501482 999999.999999
*  2023  2  1 20 56 30.00000000
PL65  -1335.289551   6296.536927  -2388.136894   6794.814596
VL65   8672.499475 -25182.820250 -71495.813612 999999.999999
*  2023  2  1 20 57  0.00000000
PL65  -1308.710028   6217.468125  -2601.256575   6795.283486
VL65   9043.822627 -27525.029048 -70570.847585 999999.999999
*  2023  2  1 20 57 30.00000000
PL65  -1281.046912   6131.416202  -2811.483780   6795.752436
VL65   9394.849610 -29837.789639 -69567.684072 999999.999999
*  2023  2  1 20 58  0.00000000
PL65  -1252.361479   6038.473487  -3018.585648   6796.221809
VL65   9725.328531 -32118.452046 -68487.492322 999999.999999
*  2023  2  1 20 58 30.00000000
PL65  -1222.715707   5938.740201  -3222.332959   6796.690513
VL65  10035.042240 -34364.405193 -67331.528632 999999.999999
*  2023  2  1 20 59  0.00000000
PL65  -1192.172174   5832.324335  -3422.500387   6797.159492
VL65  10323.808624 -36573.080608 -66101.134786 999999.999999
*  2023  2  1 20 59 30.00000000
PL65  -1160.793951   5719.341518  -3618.866759   6797.628348
VL65  10591.480745 -38741.956461 -64797.735713 999999.999999
*  2023  2  1 21  0  0.00000000
PL65  -1128.644497   5599.914870  -3811.215298   6798.097349
VL65  10837.946698 -40868.560912 -63422.836429 999999.999999
*  2023  2  1 21  0 30.00000000
PL65  -1095.787555   5474.174846  -3999.333857   6798.566242
VL65  11063.129418 -42950.474188 -61978.018817 999999.999999
*  2023  2  1 21  1  0.00000000
PL65  -1062.287047   5342.259084  -4183.015147   6799.035208
VL65  11266.986562 -44985.329781 -60464.939508 999999.999999
*  2023  2  1 21  1 30.00000000
PL65  -1028.206970   5204.312238  -4362.056960   6799.504350
VL65  11449.510383 -46970.816602 -58885.328741 999999.999999
*  2023  2  1 21  2  0.00000000
PL65   -993.611293   5060.485808  -4536.262388   6799.973358
VL65  11610.727383 -48904.682069 -57240.988564 999999.999999
*  2023  2  1 21  2 30.00000000
PL65   -958.563854   4910.937960  -4705.440032   6800.442240
VL65  11750.697844 -50784.734893 -55533.790463 999999.999999
EOF
